GLOBALSTAR M057         
1 25943U 99058A   25358.74578567 -.00000090  00000+0  23860-4 0  9998
2 25943  51.9952 167.3949 0003318  60.5830 299.5350 12.24832288190285
GLOBALSTAR M059         
1 25944U 99058B   25358.86562397 -.00000085  00000+0  98341-5 0  9997
2 25944  52.0038  51.3210 0000261 111.9542  59.1528 11.99988228596937
GLOBALSTAR M056         
1 25945U 99058C   25358.85255350 -.00000125  00000+0 -43258-3 0  9996
2 25945  51.9977  48.4287 0001191 183.8371 347.9886 12.04781274185602
GLOBALSTAR M031         
1 25946U 99058D   25351.65166691 -.00000043  00000+0  48267-3 0  9990
2 25946  51.9983 309.4344 0000939 181.2254 351.7896 12.16044933186865
GLOBALSTAR M039         
1 25961U 99062A   25358.82998726 -.00000079  00000+0  13694-3 0  9995
2 25961  51.9863  48.0483 0002729  59.9660 300.1477 12.62339864204292
GLOBALSTAR M034         
1 25962U 99062B   25358.80409538 -.00000064  00000+0  26523-3 0  9991
2 25962  51.9856 235.8927 0015209  43.4033  33.0347 11.79454356160888
GLOBALSTAR M029         
1 25963U 99062C   25358.85653242 -.00000024  00000+0  77242-3 0  9990
2 25963  51.9828 299.2190 0002577 116.7042 278.6809 11.99905197192018
GLOBALSTAR M061         
1 25964U 99062D   25358.57917970 -.00000095  00000+0 -24348-3 0  9999
2 25964  51.9810  63.0371 0005352 323.3090 185.2413 11.76777634143592
